[
  {
    "name": "STARLINK-4312",
    "noradId": "53065",
    "line1": "1 53065U 22077Y   26181.47424089  .00005346  00000+0  37439-3 0  9999",
    "line2": "2 53065  97.2935 359.8555 0001937 104.5433 255.6009 15.05625070217880"
  },
  {
    "name": "STARLINK-4309",
    "noradId": "53066",
    "line1": "1 53066U 22077Z   26181.49638202  .00005913  00000+0  41320-3 0  9990",
    "line2": "2 53066  97.2933 359.8307 0001746 106.8502 253.2917 15.05665124217880"
  },
  {
    "name": "STARLINK-4325",
    "noradId": "53068",
    "line1": "1 53068U 22077AB  26181.48111636 -.00000024  00000+0  22482-5 0  9997",
    "line2": "2 53068  97.2936   0.9105 0002168  99.0808 261.0665 15.05645647217959"
  },
  {
    "name": "STARLINK-4323",
    "noradId": "53069",
    "line1": "1 53069U 22077AC  26181.44929828 -.00000867  00000+0 -56188-4 0  9999",
    "line2": "2 53069  97.2948 359.7209 0001716  55.3267 304.8122 15.05665699217879"
  },
  {
    "name": "STARLINK-4342",
    "noradId": "53070",
    "line1": "1 53070U 22077AD  26181.44236419 -.00002374  00000+0 -16068-3 0  9995",
    "line2": "2 53070  97.2958   0.9639 0000538  89.4028 270.7262 15.05649875217951"
  },
  {
    "name": "STARLINK-4328",
    "noradId": "53071",
    "line1": "1 53071U 22077AE  26181.50605974 -.00001771  00000+0 -11889-3 0  9995",
    "line2": "2 53071  97.2973   1.0120 0000886  40.8147 319.3147 15.05636955217963"
  },
  {
    "name": "STARLINK-4344",
    "noradId": "53072",
    "line1": "1 53072U 22077AF  26181.49219263 -.00000216  00000+0 -11027-4 0  9994",
    "line2": "2 53072  97.2936   0.8864 0001757  91.6169 268.5260 15.05654388217951"
  },
  {
    "name": "STARLINK-4346",
    "noradId": "53073",
    "line1": "1 53073U 22077AG  26181.48975029  .00013324  00000+0  56825-3 0  9999",
    "line2": "2 53073  97.6345  11.2526 0005913 177.5888 182.5378 15.23041735218458"
  },
  {
    "name": "STARLINK-4310",
    "noradId": "53074",
    "line1": "1 53074U 22077AH  26181.83335647  .01427547  00000+0  27387-1 0  9991",
    "line2": "2 53074  97.5781   3.5075 0001592  81.6188 239.8944 15.45145328  5661"
  },
  {
    "name": "STARLINK-4348",
    "noradId": "53075",
    "line1": "1 53075U 22077AJ  26181.45485134 -.00000921  00000+0 -59887-4 0  9994",
    "line2": "2 53075  97.2965 359.8463 0001546  61.4069 298.7314 15.05665014217883"
  },
  {
    "name": "STARLINK-4347",
    "noradId": "53076",
    "line1": "1 53076U 22077AK  26181.43822415 -.00000955  00000+0 -62277-4 0  9994",
    "line2": "2 53076  97.2956 359.7267 0001104  71.6304 288.5044 15.05662118217878"
  },
  {
    "name": "STARLINK-4322",
    "noradId": "53078",
    "line1": "1 53078U 22077AM  26181.46038770 -.00001322  00000+0 -87691-4 0  9998",
    "line2": "2 53078  97.2947 359.8418 0002230  79.1162 281.0317 15.05664189217887"
  },
  {
    "name": "STARLINK-4327",
    "noradId": "53079",
    "line1": "1 53079U 22077AN  26181.45619786 -.00001904  00000+0 -12811-3 0  9997",
    "line2": "2 53079  97.2988   0.9018 0000811  88.2719 271.8602 15.05652629217953"
  },
  {
    "name": "STARLINK-4330",
    "noradId": "53080",
    "line1": "1 53080U 22077AP  26181.80507220 -.00008207  00000+0 -56404-3 0  9996",
    "line2": "2 53080  97.3045   1.2233 0001994  71.1684 288.9759 15.05750994218001"
  },
  {
    "name": "STARLINK-4326",
    "noradId": "53081",
    "line1": "1 53081U 22077AQ  26181.49361277 -.00001018  00000+0 -66644-4 0  9993",
    "line2": "2 53081  97.2984 359.7731 0001215 115.6656 244.4697 15.05647666217880"
  },
  {
    "name": "STARLINK-4321",
    "noradId": "53082",
    "line1": "1 53082U 22077AR  26181.44377911 -.00002766  00000+0 -18797-3 0  9997",
    "line2": "2 53082  97.3008 359.6959 0000968   1.2024 358.9206 15.05633456217871"
  },
  {
    "name": "STARLINK-4251",
    "noradId": "53083",
    "line1": "1 53083U 22077AS  26181.46729148  .00002568  00000+0  18184-3 0  9991",
    "line2": "2 53083  97.2944   0.8523 0001356  89.3788 270.7595 15.05643566217952"
  },
  {
    "name": "STARLINK-4319",
    "noradId": "53084",
    "line1": "1 53084U 22077AT  26181.46451250 -.00001565  00000+0 -10456-3 0  9990",
    "line2": "2 53084  97.2955   0.8801 0001787  70.8221 289.3200 15.05659579217959"
  },
  {
    "name": "STARLINK-4324",
    "noradId": "53085",
    "line1": "1 53085U 22077AU  26181.47834551 -.00001865  00000+0 -12534-3 0  9993",
    "line2": "2 53085  97.2932   0.8542 0002403  81.2782 278.8718 15.05659701217955"
  },
  {
    "name": "STARLINK-4318",
    "noradId": "53086",
    "line1": "1 53086U 22077AV  26181.44101672 -.00002637  00000+0 -17894-3 0  9994",
    "line2": "2 53086  97.2984 359.8435 0000525  35.0904 325.0358 15.05641956217887"
  },
  {
    "name": "STARLINK-4333",
    "noradId": "53088",
    "line1": "1 53088U 22077AX  26181.50191610  .00000493  00000+0  38065-4 0  9994",
    "line2": "2 53088  97.2956 359.7518 0001358  86.9759 273.1624 15.05649165217886"
  },
  {
    "name": "STARLINK-4150",
    "noradId": "53134",
    "line1": "1 53134U 22083C   26180.95099211  .00068361  00000+0  42101-2 0  9997",
    "line2": "2 53134  53.1606  29.9852 0001622  89.7257 270.3920 15.09372688218163"
  },
  {
    "name": "STARLINK-4023",
    "noradId": "53135",
    "line1": "1 53135U 22083D   26181.83335647  .01077051  00000+0  36901-1 0  9999",
    "line2": "2 53135  53.1589  25.1078 0001412 112.9480  73.0052 15.27239595  5848"
  },
  {
    "name": "STARLINK-4152",
    "noradId": "53136",
    "line1": "1 53136U 22083E   26181.83335647  .00013852  00000+0  82093-3 0  9993",
    "line2": "2 53136  53.1587  26.0061 0001042  68.5733  34.5927 15.11654593  5783"
  },
  {
    "name": "STARLINK-4145",
    "noradId": "53137",
    "line1": "1 53137U 22083F   26181.83335647  .00022737  00000+0  12846-2 0  9994",
    "line2": "2 53137  53.1594  25.9892 0002183  80.5415  70.7637 15.13036251  5833"
  },
  {
    "name": "STARLINK-4141",
    "noradId": "53138",
    "line1": "1 53138U 22083G   26180.94655418  .00001716  00000+0  12593-3 0  9991",
    "line2": "2 53138  53.1611  25.1921 0001151  93.1610 266.9513 15.08823976219000"
  },
  {
    "name": "STARLINK-4185",
    "noradId": "53139",
    "line1": "1 53139U 22083H   26181.59927206  .00001977  00000+0  14224-3 0  9993",
    "line2": "2 53139  53.1622  27.0790 0001427 102.1056 258.0095 15.08849472218262"
  },
  {
    "name": "STARLINK-4170",
    "noradId": "53140",
    "line1": "1 53140U 22083J   26181.60295074 -.00000615  00000+0 -20582-4 0  9993",
    "line2": "2 53140  53.1601  27.0584 0001305  86.6126 273.5015 15.08831550218263"
  },
  {
    "name": "STARLINK-4103",
    "noradId": "53141",
    "line1": "1 53141U 22083K   26181.83335647  .00058855  00000+0  23023-2 0  9998",
    "line2": "2 53141  53.1606  25.1173 0001134  76.8912 304.5775 15.25298652  5784"
  },
  {
    "name": "STARLINK-4101",
    "noradId": "53142",
    "line1": "1 53142U 22083L   26181.83335647  .01139456  00000+0  41490-1 0  9994",
    "line2": "2 53142  53.1612  25.1651 0000807 116.8679 179.9894 15.25056951  5830"
  }
]