OBJECT_NAME,OBJECT_ID,EPOCH,MEAN_MOTION,ECCENTRICITY,INCLINATION,RA_OF_ASC_NODE,ARG_OF_PERICENTER,MEAN_ANOMALY,EPHEMERIS_TYPE,CLASSIFICATION_TYPE,NORAD_CAT_ID,ELEMENT_SET_NO,REV_AT_EPOCH,BSTAR,MEAN_MOTION_DOT,MEAN_MOTION_DDOT
STARLINK-4312,2022-077Y,2026-06-30T11:22:54.412896,15.05625070,.00019374,97.2935,359.8555,104.5433,255.6009,0,U,53065,999,21788,.37438934E-3,.5346E-4,0
STARLINK-4309,2022-077Z,2026-06-30T11:54:47.406528,15.05665124,.00017468,97.2933,359.8307,106.8502,253.2917,0,U,53066,999,21788,.41319582E-3,.5913E-4,0
STARLINK-4325,2022-077AB,2026-06-30T11:32:48.453504,15.05645647,.00021688,97.2936,0.9105,99.0808,261.0665,0,U,53068,999,21795,.2248163E-5,-.24E-6,0
STARLINK-4323,2022-077AC,2026-06-30T10:46:59.371392,15.05665699,.00017162,97.2948,359.7209,55.3267,304.8122,0,U,53069,999,21787,-.56187587E-4,-.867E-5,0
STARLINK-4342,2022-077AD,2026-06-30T10:37:00.266016,15.05649875,.00005389,97.2958,0.9639,89.4028,270.7262,0,U,53070,999,21795,-.16068206E-3,-.2374E-4,0
STARLINK-4328,2022-077AE,2026-06-30T12:08:43.561536,15.05636955,.00008868,97.2973,1.0120,40.8147,319.3147,0,U,53071,999,21796,-.1188871E-3,-.1771E-4,0
STARLINK-4344,2022-077AF,2026-06-30T11:48:45.443232,15.05654388,.00017578,97.2936,0.8864,91.6169,268.5260,0,U,53072,999,21795,-.11027162E-4,-.216E-5,0
STARLINK-4346,2022-077AG,2026-06-30T11:45:14.425056,15.23041735,.00059134,97.6345,11.2526,177.5888,182.5378,0,U,53073,999,21845,.56824823E-3,.13324E-3,0
STARLINK-4310,2022-077AH,2026-06-30T20:00:01.999008,15.45145328,.0001592,97.5781,3.5075,81.6188,239.8944,0,U,53074,999,566,.27387E-1,.1427547E-1,0
STARLINK-4348,2022-077AJ,2026-06-30T10:54:59.155776,15.05665014,.00015468,97.2965,359.8463,61.4069,298.7314,0,U,53075,999,21788,-.59886521E-4,-.921E-5,0
STARLINK-4347,2022-077AK,2026-06-30T10:31:02.566560,15.05662118,.00011042,97.2956,359.7267,71.6304,288.5044,0,U,53076,999,21787,-.62276735E-4,-.955E-5,0
STARLINK-4322,2022-077AM,2026-06-30T11:02:57.497280,15.05664189,.00022309,97.2947,359.8418,79.1162,281.0317,0,U,53078,999,21788,-.87690582E-4,-.1322E-4,0
STARLINK-4327,2022-077AN,2026-06-30T10:56:55.495104,15.05652629,.00008118,97.2988,0.9018,88.2719,271.8602,0,U,53079,999,21795,-.12811223E-3,-.1904E-4,0
STARLINK-4330,2022-077AP,2026-06-30T19:19:18.238080,15.05750994,.0001994,97.3045,1.2233,71.1684,288.9759,0,U,53080,999,21800,-.56404E-3,-.8207E-4,0
STARLINK-4326,2022-077AQ,2026-06-30T11:50:48.143328,15.05647666,.00012155,97.2984,359.7731,115.6656,244.4697,0,U,53081,999,21788,-.66644007E-4,-.1018E-4,0
STARLINK-4321,2022-077AR,2026-06-30T10:39:02.515104,15.05633456,.00009687,97.3008,359.6959,1.2024,358.9206,0,U,53082,999,21787,-.18796708E-3,-.2766E-4,0
STARLINK-4251,2022-077AS,2026-06-30T11:12:53.983872,15.05643566,.00013564,97.2944,0.8523,89.3788,270.7595,0,U,53083,999,21795,.18183976E-3,.2568E-4,0
STARLINK-4319,2022-077AT,2026-06-30T11:08:53.880000,15.05659579,.00017874,97.2955,0.8801,70.8221,289.3200,0,U,53084,999,21795,-.1045573E-3,-.1565E-4,0
STARLINK-4324,2022-077AU,2026-06-30T11:28:49.052064,15.05659701,.00024037,97.2932,0.8542,81.2782,278.8718,0,U,53085,999,21795,-.12534102E-3,-.1865E-4,0
STARLINK-4318,2022-077AV,2026-06-30T10:35:03.844608,15.05641956,.00005256,97.2984,359.8435,35.0904,325.0358,0,U,53086,999,21788,-.17894047E-3,-.2637E-4,0
STARLINK-4333,2022-077AX,2026-06-30T12:02:45.551040,15.05649165,.00013585,97.2956,359.7518,86.9759,273.1624,0,U,53088,999,21788,.38065165E-4,.493E-5,0
STARLINK-4150,2022-083C,2026-06-29T22:49:25.718304,15.09372688,.00016225,53.1606,29.9852,89.7257,270.3920,0,U,53134,999,21816,.42100825E-2,.68361E-3,0
STARLINK-4023,2022-083D,2026-06-30T20:00:01.999008,15.27239595,.0001412,53.1589,25.1078,112.9480,73.0052,0,U,53135,999,584,.36901E-1,.1077051E-1,0
STARLINK-4152,2022-083E,2026-06-30T20:00:01.999008,15.11654593,.0001042,53.1587,26.0061,68.5733,34.5927,0,U,53136,999,578,.82093E-3,.13852E-3,0
STARLINK-4145,2022-083F,2026-06-30T20:00:01.999008,15.13036251,.0002183,53.1594,25.9892,80.5415,70.7637,0,U,53137,999,583,.12846E-2,.22737E-3,0
STARLINK-4141,2022-083G,2026-06-29T22:43:02.281152,15.08823976,.00011519,53.1611,25.1921,93.1610,266.9513,0,U,53138,999,21900,.12593133E-3,.1716E-4,0
STARLINK-4185,2022-083H,2026-06-30T14:22:57.105984,15.08849472,.0001427,53.1622,27.0790,102.1056,258.0095,0,U,53139,999,21826,.14224E-3,.1977E-4,0
STARLINK-4170,2022-083J,2026-06-30T14:28:14.943936,15.08831550,.0001305,53.1601,27.0584,86.6126,273.5015,0,U,53140,999,21826,-.20582E-4,-.615E-5,0
STARLINK-4103,2022-083K,2026-06-30T20:00:01.999008,15.25298652,.0001134,53.1606,25.1173,76.8912,304.5775,0,U,53141,999,578,.23023E-2,.58855E-3,0
STARLINK-4101,2022-083L,2026-06-30T20:00:01.999008,15.25056951,.0000807,53.1612,25.1651,116.8679,179.9894,0,U,53142,999,583,.4149E-1,.1139456E-1,0
